ASTROCAST-0401          
1 55110U 23001DF  26068.71172895  .00009750  00000+0  37868-3 0  9995
2 55110  97.5547 160.5206 0008142 188.4231 171.6872 15.26258462176022
STARLINK-30520          
1 58010U 23153V   26068.05498536  .00000623  00000+0  32147-4 0  9991
2 58010  43.0017  70.2477 0001547 267.8325  92.2349 15.27581814134704
